QIANFAN-65              
1 62795U 25016L   25308.21706206  .00000052  00000+0  61234-4 0  9991
2 62795  88.9731 107.0423 0015629  94.8073 265.4863 13.50974322 42048
QIANFAN-66              
1 62796U 25016M   25308.24590642  .00000054  00000+0  64184-4 0  9999
2 62796  88.9751 107.0020 0016732  90.7372 269.5697 13.50978372 42091
QIANFAN-67              
1 62797U 25016N   25308.25000989  .00000052  00000+0  61078-4 0  9998
2 62797  88.9741 107.0309 0016719  96.9415 263.3639 13.50971172 42068
QIANFAN-68              
1 62798U 25016P   25308.24177222  .00000057  00000+0  68640-4 0  9990
2 62798  88.9745 107.0755 0016766  95.3661 264.9404 13.50973515 42044
QIANFAN-69              
1 62799U 25016Q   25308.25830460  .00000058  00000+0  71570-4 0  9999
2 62799  88.9723 106.9515 0017528  96.2895 264.0253 13.50970861 42087
QIANFAN-70              
1 62800U 25016R   25308.27458211  .00000060  00000+0  74606-4 0  9990
2 62800  88.9744 107.0802 0017098  87.5227 272.7882 13.50973804 42048
QIANFAN-71              
1 62801U 25016S   25308.27055458  .00000041  00000+0  44966-4 0  9992
2 62801  88.9738 107.0624 0017442  99.4329 260.8795 13.50974589 42044
QIANFAN-72              
1 62802U 25016T   25308.21296228  .00000063  00000+0  78931-4 0  9992
2 62802  88.9729 107.0855 0020675 106.2787 254.0641 13.50974376 42025
